STARLINK-1501_new
1 15763C 20038AK  21326.12105575  .00019218  00000-0  16975-3 0  3264
2 15763  53.0534 354.5035 0007605 278.9920 145.1930 15.67953450    16
STARLINK-1501_old
1 25763C 20038AK  21325.17346684 -.00028920  00000-0 -25506-3 0  3257
2 25763  53.0535 359.1745 0007311 277.1805 194.8789 15.68041430    13
